{
  "type": "FeatureCollection",
  "features": [
    {
      "type": "Feature",
      "properties": {
        "name": "Berlin Hauptbahnhof",
        "kind": "station_area"
      },
      "geometry": {
        "type": "Polygon",
        "coordinates": [
          [
            [
              13.3682756,
              52.5242887
            ],
            [
              13.3706245,
              52.5242887
            ],
            [
              13.3706245,
              52.52574
            ],
            [
              13.3682756,
              52.52574
            ],
            [
              13.3682756,
              52.5242887
            ]
          ]
        ]
      }
    },
    {
      "type": "Feature",
      "properties": {
        "name": "Berliner Stadtbahn",
        "kind": "rail_line"
      },
      "geometry": {
        "type": "LineString",
        "coordinates": [
          [
            13.3563033,
            52.5195981
          ],
          [
            13.3566202,
            52.5196618
          ],
          [
            13.3568699,
            52.5197186
          ],
          [
            13.35696,
            52.5197432
          ],
          [
            13.3573633,
            52.519854
          ],
          [
            13.3577548,
            52.5199852
          ],
          [
            13.3583603,
            52.520226
          ],
          [
            13.3591461,
            52.5206208
          ],
          [
            13.3592438,
            52.5206711
          ],
          [
            13.359517,
            52.5208091
          ],
          [
            13.3595852,
            52.520846
          ],
          [
            13.3598197,
            52.5209641
          ],
          [
            13.3599005,
            52.5210055
          ],
          [
            13.3601341,
            52.5211266
          ],
          [
            13.36086,
            52.5214925
          ],
          [
            13.3616498,
            52.5219026
          ],
          [
            13.3621146,
            52.5221369
          ],
          [
            13.3633272,
            52.5227601
          ]
        ]
      }
    },
    {
      "type": "Feature",
      "properties": {
        "name": "320",
        "kind": "point_target"
      },
      "geometry": {
        "type": "Point",
        "coordinates": [
          13.3666593,
          52.5245643
        ]
      }
    }
  ]
}